{
  "type": "FeatureCollection",
  "features": [
    {
      "type": "Feature",
      "properties": {
        "norad_id": 58701,
        "name": "TIANMU-1 16",
        "group": "weather",
        "lat": 62.945225232006685,
        "lon": 147.88238284844266,
        "alt_km": 487.61536148321557,
        "timestamp": "2025-12-07T20:38:13.723784+00:00",
        "meta_object_name": "TIANMU-1 16",
        "meta_object_id": "2024-004B",
        "meta_epoch": "2025-12-07T06:10:42.818592",
        "meta_mean_motion": 15.24322065,
        "meta_eccentricity": 0.00048215,
        "meta_inclination": 97.4565,
        "meta_ra_of_asc_node": 162.142,
        "meta_arg_of_pericenter": 319.6149,
        "meta_mean_anomaly": 40.4729,
        "meta_ephemeris_type": 0,
        "meta_classification_type": "U",
        "meta_norad_cat_id": 58701,
        "meta_element_set_no": 999,
        "meta_rev_at_epoch": 10651,
        "meta_bstar": 0.00045661588,
        "meta_mean_motion_dot": 0.00011104,
        "meta_mean_motion_ddot": 0,
        "tle_line1": "1 58701U 24004B   25341.25744003  .00011104  00000+0  45662-3 0  9993",
        "tle_line2": "2 58701  97.4565 162.1420 0004821 319.6149  40.4729 15.24322065106512"
      },
      "geometry": {
        "type": "Point",
        "coordinates": [
          147.88238284844266,
          62.945225232006685
        ]
      }
    },
    {
      "type": "Feature",
      "properties": {
        "norad_id": 58702,
        "name": "TIANMU-1 17",
        "group": "weather",
        "lat": 31.969546350173996,
        "lon": -12.159978339032252,
        "alt_km": 493.6282425088375,
        "timestamp": "2025-12-07T20:38:13.723794+00:00",
        "meta_object_name": "TIANMU-1 17",
        "meta_object_id": "2024-004C",
        "meta_epoch": "2025-12-07T05:48:45.639360",
        "meta_mean_motion": 15.2436733,
        "meta_eccentricity": 0.00040125,
        "meta_inclination": 97.4601,
        "meta_ra_of_asc_node": 162.5341,
        "meta_arg_of_pericenter": 324.0564,
        "meta_mean_anomaly": 36.0403,
        "meta_ephemeris_type": 0,
        "meta_classification_type": "U",
        "meta_norad_cat_id": 58702,
        "meta_element_set_no": 999,
        "meta_rev_at_epoch": 10650,
        "meta_bstar": 0.00043199317,
        "meta_mean_motion_dot": 0.00010514,
        "meta_mean_motion_ddot": 0,
        "tle_line1": "1 58702U 24004C   25341.24219490  .00010514  00000+0  43199-3 0  9997",
        "tle_line2": "2 58702  97.4601 162.5341 0004012 324.0564  36.0403 15.24367330106506"
      },
      "geometry": {
        "type": "Point",
        "coordinates": [
          -12.159978339032252,
          31.969546350173996
        ]
      }
    },
    {
      "type": "Feature",
      "properties": {
        "norad_id": 58703,
        "name": "TIANMU-1 18",
        "group": "weather",
        "lat": -58.56900903746559,
        "lon": -29.040498608673122,
        "alt_km": 499.58903731767896,
        "timestamp": "2025-12-07T20:38:13.723804+00:00",
        "meta_object_name": "TIANMU-1 18",
        "meta_object_id": "2024-004D",
        "meta_epoch": "2025-12-07T06:59:11.953248",
        "meta_mean_motion": 15.24358045,
        "meta_eccentricity": 0.00033599,
        "meta_inclination": 97.4617,
        "meta_ra_of_asc_node": 162.7769,
        "meta_arg_of_pericenter": 325.3328,
        "meta_mean_anomaly": 34.769,
        "meta_ephemeris_type": 0,
        "meta_classification_type": "U",
        "meta_norad_cat_id": 58703,
        "meta_element_set_no": 999,
        "meta_rev_at_epoch": 10651,
        "meta_bstar": 0.0004016156,
        "meta_mean_motion_dot": 9.765e-05,
        "meta_mean_motion_ddot": 0,
        "tle_line1": "1 58703U 24004D   25341.29111057  .00009765  00000+0  40162-3 0  9996",
        "tle_line2": "2 58703  97.4617 162.7769 0003359 325.3328  34.7690 15.24358045106512"
      },
      "geometry": {
        "type": "Point",
        "coordinates": [
          -29.040498608673122,
          -58.56900903746559
        ]
      }
    },
    {
      "type": "Feature",
      "properties": {
        "norad_id": 58990,
        "name": "INSAT-3DS",
        "group": "weather",
        "lat": 0.010559025187172227,
        "lon": 108.50508571823069,
        "alt_km": 35793.23703058833,
        "timestamp": "2025-12-07T20:38:13.723819+00:00",
        "meta_object_name": "INSAT-3DS",
        "meta_object_id": "2024-033A",
        "meta_epoch": "2025-12-07T03:45:11.753856",
        "meta_mean_motion": 1.00269709,
        "meta_eccentricity": 0.00017031,
        "meta_inclination": 0.0153,
        "meta_ra_of_asc_node": 84.809,
        "meta_arg_of_pericenter": 178.8494,
        "meta_mean_anomaly": 310.9152,
        "meta_ephemeris_type": 0,
        "meta_classification_type": "U",
        "meta_norad_cat_id": 58990,
        "meta_element_set_no": 999,
        "meta_rev_at_epoch": 4514,
        "meta_bstar": 0,
        "meta_mean_motion_dot": -1.51e-06,
        "meta_mean_motion_ddot": 0,
        "tle_line1": "1 58990U 24033A   25341.15638604 -.00000151  00000+0  00000+0 0  9997",
        "tle_line2": "2 58990   0.0153  84.8090 0001703 178.8494 310.9152  1.00269709 45142"
      },
      "geometry": {
        "type": "Point",
        "coordinates": [
          108.50508571823069,
          0.010559025187172227
        ]
      }
    },
    {
      "type": "Feature",
      "properties": {
        "norad_id": 59051,
        "name": "METEOR-M2 4",
        "group": "weather",
        "lat": 42.54437298769635,
        "lon": -69.21012396134545,
        "alt_km": 809.1740152503799,
        "timestamp": "2025-12-07T20:38:13.723830+00:00",
        "meta_object_name": "METEOR-M2 4",
        "meta_object_id": "2024-039A",
        "meta_epoch": "2025-12-07T06:55:45.431328",
        "meta_mean_motion": 14.22399992,
        "meta_eccentricity": 0.00073449,
        "meta_inclination": 98.676,
        "meta_ra_of_asc_node": 298.2833,
        "meta_arg_of_pericenter": 14.0004,
        "meta_mean_anomaly": 346.1376,
        "meta_ephemeris_type": 0,
        "meta_classification_type": "U",
        "meta_norad_cat_id": 59051,
        "meta_element_set_no": 999,
        "meta_rev_at_epoch": 9198,
        "meta_bstar": 6.3162441e-05,
        "meta_mean_motion_dot": 9.7e-07,
        "meta_mean_motion_ddot": 0,
        "tle_line1": "1 59051U 24039A   25341.28872027  .00000097  00000+0  63162-4 0  9996",
        "tle_line2": "2 59051  98.6760 298.2833 0007344  14.0004 346.1376 14.22399992 91987"
      },
      "geometry": {
        "type": "Point",
        "coordinates": [
          -69.21012396134545,
          42.54437298769635
        ]
      }
    },
    {
      "type": "Feature",
      "properties": {
        "norad_id": 60133,
        "name": "GOES 19",
        "group": "weather",
        "lat": -0.001780714482281873,
        "lon": -48.76083387346149,
        "alt_km": 35780.38082942158,
        "timestamp": "2025-12-07T20:38:13.723841+00:00",
        "meta_object_name": "GOES 19",
        "meta_object_id": "2024-119A",
        "meta_epoch": "2025-12-07T06:25:41.380320",
        "meta_mean_motion": 1.00270034,
        "meta_eccentricity": 0.00014968,
        "meta_inclination": 0.0092,
        "meta_ra_of_asc_node": 88.2406,
        "meta_arg_of_pericenter": 215.4395,
        "meta_mean_anomaly": 153.8489,
        "meta_ephemeris_type": 0,
        "meta_classification_type": "U",
        "meta_norad_cat_id": 60133,
        "meta_element_set_no": 999,
        "meta_rev_at_epoch": 504,
        "meta_bstar": 0,
        "meta_mean_motion_dot": -2.44e-06,
        "meta_mean_motion_ddot": 0,
        "tle_line1": "1 60133U 24119A   25341.26784005 -.00000244  00000+0  00000+0 0  9996",
        "tle_line2": "2 60133   0.0092  88.2406 0001496 215.4395 153.8489  1.00270034  5047"
      },
      "geometry": {
        "type": "Point",
        "coordinates": [
          -48.76083387346149,
          -0.001780714482281873
        ]
      }
    },
    {
      "type": "Feature",
      "properties": {
        "norad_id": 65815,
        "name": "FENGYUN 3H",
        "group": "weather",
        "lat": -33.753479306254064,
        "lon": -72.59975847311297,
        "alt_km": 831.9815895343036,
        "timestamp": "2025-12-07T20:38:13.723854+00:00",
        "meta_object_name": "FENGYUN 3H",
        "meta_object_id": "2025-219A",
        "meta_epoch": "2025-12-07T07:16:05.433888",
        "meta_mean_motion": 14.19902374,
        "meta_eccentricity": 6.146e-05,
        "meta_inclination": 98.6577,
        "meta_ra_of_asc_node": 281.0115,
        "meta_arg_of_pericenter": 79.8095,
        "meta_mean_anomaly": 280.3151,
        "meta_ephemeris_type": 0,
        "meta_classification_type": "U",
        "meta_norad_cat_id": 65815,
        "meta_element_set_no": 999,
        "meta_rev_at_epoch": 1015,
        "meta_bstar": 0.00012186109,
        "meta_mean_motion_dot": 2.15e-06,
        "meta_mean_motion_ddot": 0,
        "tle_line1": "1 65815U 25219A   25341.30284067  .00000215  00000+0  12186-3 0  9997",
        "tle_line2": "2 65815  98.6577 281.0115 0000614  79.8095 280.3151 14.19902374 10153"
      },
      "geometry": {
        "type": "Point",
        "coordinates": [
          -72.59975847311297,
          -33.753479306254064
        ]
      }
    }
  ]
}